OBJECTID,NAME,ADDRESS,GRADES,DIRECTOR,PHONE,AUTHORIZER,AUTHORIZAT,ENROLLMENT,GIS_ID,WEB_URL,ADDRID,X,Y,MYSCHOOL,SCHOOL_YEA,LEA_NAME,LEA_ID,SCHOOL_NAM,SCHOOL_ID,SCHOOLCODE,GRADES_1,LATITUDE,LONGITUDE,FACILITY_ID,CLUSTER_,WARD,ZIPCODE
1,Breakthrough Montessori PCS - Takoma,6856 EASTERN AVENUE NW,PK3-1st,Edwin Strickland,202-407-7022,,0,0,chrt_124,https://www.breakthroughmontessori.org/,245172,398808.97,145137.51,Y,2018-2019,Breakthrough Montessori PCS [Eastern Ave],189,Breakthrough Montessori PCS [Eastern Ave],289,289,PK3-1st,38.9741577,-77.01374471,PCSB_136BLD,Cluster 17,Ward 4,20012
2,Breakthrough Montessori PCS - Petworth,1244 TAYLOR STREET NW,PK3-1st,Edwin Strickland,202-407-7022,,0,0,chrt_135,https://www.breakthroughmontessori.org/,283962,397541.67,141419.28,Y,2018-2019,Breakthrough Montessori PCS [Main],189,Breakthrough Montessori PCS [Main],289,289,PK3-1st,38.94065995,-77.02835627,PCSB_103BLD,Cluster 18,Ward 4,20011
3,Bridges PCS,100 GALLATIN STREET NE,PK3-5th,Olivia Smith,202-545-0515,,0,0,chrt_107,http://bridgespcs.org/,294470,399351.72,142773.48,Y,2018-2019,Bridges PCS,107,Bridges PCS,142,142,PK3-5th,38.95286249,-77.00747904,DGS_0191.0,Cluster 19,Ward 5,20011
4,Briya PCS [Bancroft/Mount Pleasant],1755 NEWTON STREET NW,"PK3-PK4; Adult",,202-797-7337,,0,0,chrt_41,https://www.briya.org/,294528,396483.93,140715.67,N,2018-2019,Briya PCS [Bancroft/Mount Pleasant],119,Briya PCS [Bancroft/Mount Pleasant],126,126,"PK3-PK4; Adult",38.93431836,-77.04055344,DGS_0343.0,Cluster 2,Ward 1,20010
5,Briya PCS [Gallatin Street/Fort Totten],100 GALLATIN STREET NE,"PK3-PK4; Adult",,202-232-7777,,0,0,chrt_154,https://www.briya.org/,294470,399351.72,142773.48,N,2018-2019,Briya PCS [Gallatin Street/Fort Totten],119,Briya PCS [Gallatin Street/Fort Totten],126,126,"PK3-PK4; Adult",38.95286249,-77.00747904,DGS_0191.0,Cluster 19,Ward 5,20011
6,Briya PCS [Georgia Avenue/Petworth],3912 GEORGIA AVENUE NW,"PK3-PK4; Adult",,202-545-2020,,0,0,chrt_42,https://www.briya.org/,224825,397823.06,141262.62,N,2018-2019,Briya PCS [Georgia Avenue/Petworth],119,Briya PCS [Georgia Avenue/Petworth],126,126,"PK3-PK4; Adult",38.93924978,-77.02511,PCSB_43BLD,Cluster 18,Ward 4,20011
7,Briya PCS [Ontario Road/Adams Morgan],2333 ONTARIO ROAD NW,"PK3-PK4; Adult",,202-420-7200,,0,0,chrt_40,https://www.briya.org/,284370,396548.08,139234.16,N,2018-2019,Briya PCS [Ontario Road/Adams Morgan],119,Briya PCS [Ontario Road/Adams Morgan],126,126,"PK3-PK4; Adult",38.92097271,-77.0398061,PCSB_41BLD,Cluster 1,Ward 1,20009
8,Capital City PCS - High School,100 PEABODY STREET NW,9th-12th,Karen Dresden,202-808-9800,,0,0,chrt_109,https://www.ccpcs.org/,277545,398884.8,143806.18,Y,2018-2019,Capital City PCS - High School,108,Capital City PCS - High School,1207,1207,9th-12th,38.96216486,-77.01286745,DGS_0773.0,Cluster 17,Ward 4,20011
9,Capital City PCS - Lower School,100 PEABODY STREET NW,PK3-4th,Karen Dresden,202-808-9800,,0,0,chrt_108,https://www.ccpcs.org/,277545,398884.8,143806.18,Y,2018-2019,Capital City PCS - Lower School,108,Capital City PCS - Lower School,184,184,PK3-4th,38.96216486,-77.01286745,DGS_0773.0,Cluster 17,Ward 4,20011
10,Capital City PCS - Middle School,100 PEABODY STREET NW,5th-8th,Karen Dresden,202-808-9800,,0,0,chrt_110,https://www.ccpcs.org/,277545,398884.8,143806.18,Y,2018-2019,Capital City PCS - Middle School,108,Capital City PCS - Middle School,182,182,5th-8th,38.96216486,-77.01286745,DGS_0773.0,Cluster 17,Ward 4,20011
11,Carlos Rosario International PCS [Harvard Street],1100 HARVARD STREET NW,Adult,Ryan Monroe,202-797-4700,,0,0,chrt_34,https://www.carlosrosario.org/on-campus/harvard-street-campus/,300733,397610.44,139843.33,N,2018-2019,Carlos Rosario International PCS [Harvard Street],162,Carlos Rosario International PCS [Harvard Street],1119,1119,Adult,38.92646384,-77.02755753,PCSB_14BLD,Cluster 2,Ward 1,20009
12,Carlos Rosario International PCS [Sonia Gutierrez],514 V STREET NE,Adult,Jorge Delgado,202-734-4900,,0,0,chrt_37,https://www.carlosrosario.org/on-campus/sonia-gutierrez-campus/,156315,400103,138937.35,N,2018-2019,Carlos Rosario International PCS [Sonia Gutierrez],162,Carlos Rosario International PCS [Sonia Gutierrez],1119,1119,Adult,38.91830572,-76.99881229,PCSB_106BLD,Cluster 21,Ward 5,20002
13,Cedar Tree Academy PCS,701 HOWARD ROAD SE,PK3-KG,Dr. Latonya Henderson,202-610-4193,,0,0,chrt_111,http://www.cedartree-dc.org/,300872,400069.95,132932.97,Y,2018-2019,Cedar Tree Academy PCS,123,Cedar Tree Academy PCS,188,188,PK3-KG,38.86421603,-76.99919401,PCSB_57BLD,Cluster 37,Ward 8,20020
14,Center City PCS - Brightwood,6008 GEORGIA AVENUE NW,PK3-8th,Russ Williams,202-723-3322,,0,0,chrt_112,https://centercitypcs.org/campuses/brightwood-campus/,253198,397544.85,143920.5,Y,2018-2019,Center City PCS - Brightwood,156,Center City PCS - Brightwood,1103,1103,PK3-8th,38.96319196,-77.02832854,PCSB_15BLD,Cluster 17,Ward 4,20011
15,Center City PCS - Capitol Hill,1503 EAST CAPITOL STREET SE,PK3-8th,Russ Williams,202-547-7556,,0,0,chrt_113,https://centercitypcs.org/campuses/capitol-hill/,295125,401448.44,135742.68,Y,2018-2019,Center City PCS - Capitol Hill,156,Center City PCS - Capitol Hill,1104,1104,PK3-8th,38.88952582,-76.98330456,PCSB_16BLD,Cluster 26,Ward 6,20003
16,Center City PCS - Congress Heights,220 HIGHVIEW PLACE SE,PK3-8th,Russ Williams,202-562-7070,,0,0,chrt_114,https://centercitypcs.org/campuses/congress-heights/,303702,399614.14,130420.96,Y,2018-2019,Center City PCS - Congress Heights,156,Center City PCS - Congress Heights,1105,1105,PK3-8th,38.84158668,-77.00444463,PCSB_17BLD,Cluster 39,Ward 8,20032
17,Center City PCS - Petworth,510 WEBSTER STREET NW,PK3-8th,Russ Williams,202-726-9212,,0,0,chrt_115,https://centercitypcs.org/campuses/petworth/,303332,398187.59,141775.54,Y,2018-2019,Center City PCS - Petworth,156,Center City PCS - Petworth,1106,1106,PK3-8th,38.94387114,-77.02090667,PCSB_18BLD,Cluster 18,Ward 4,20011
18,Center City PCS - Shaw,711 N STREET NW,PK4-8th,Russ Williams,202-234-1093,,0,0,chrt_116,https://centercitypcs.org/campuses/shaw/,290191,398034.11,137731.91,Y,2018-2019,Center City PCS - Shaw,156,Center City PCS - Shaw,1107,1107,PK4-8th,38.90744452,-77.02266552,PCSB_19BLD,Cluster 7,Ward 6,20001
19,Center City PCS - Trinidad,1217 WEST VIRGINIA AVENUE NE,PK3-8th,Russ Williams,202-397-1614,,0,0,chrt_117,https://centercitypcs.org/campuses/trinidad/,285938,400763.1,137493.55,Y,2018-2019,Center City PCS - Trinidad,156,Center City PCS - Trinidad,1108,1108,PK3-8th,38.90529915,-76.99120218,PCSB_20BLD,Cluster 23,Ward 5,20002
20,Cesar Chavez PCS for Public Policy - Capitol Hill,709 12TH STREET SE,9th-12th,Jeff Cooper,202-547-3424,,0,0,chrt_118,http://www.chavezschools.org/our-schools/capitol-hill-high-school/,76726,400812.11,134762.27,Y,2018-2019,Cesar Chavez PCS for Public Policy - Capitol Hill,109,Cesar Chavez PCS for Public Policy - Capitol Hill,153,153,9th-12th,38.88069473,-76.99064037,PCSB_21BLD,Cluster 26,Ward 6,20003
21,Cesar Chavez PCS for Public Policy - Chavez Prep,770 KENYON STREET NW,6th-9th,Jeff Cooper,202-723-3975,,0,0,chrt_119,http://www.chavezschools.org/our-schools/chavez-prep-middle-school/,285409,397756.37,140192.11,Y,2018-2019,Cesar Chavez PCS for Public Policy - Chavez Prep,109,Cesar Chavez PCS for Public Policy - Chavez Prep,127,127,6th-9th,38.92960614,-77.02587574,DGS_0774.0,Cluster 2,Ward 1,20010
22,Cesar Chavez PCS for Public Policy - Parkside High School,3701 HAYES STREET NE,9th-12th,Jeff Cooper,202-398-2230,,0,0,chrt_120,http://www.chavezschools.org/our-schools/parkside-high-school/,304053,404418.2,137066.13,Y,2018-2019,Cesar Chavez PCS for Public Policy - Parkside High School,109,Cesar Chavez PCS for Public Policy - Parkside High School,109,109,9th-12th,38.90143803,-76.94906511,PCSB_23BLD,Cluster 30,Ward 7,20019
23,Cesar Chavez PCS for Public Policy - Parkside Middle School,3701 HAYES STREET NE,7th-8th,Jeff Cooper,202-398-2230 Ext. 1,,0,0,chrt_3,http://www.chavezschools.org/our-schools/parkside-middle-school/,304053,404418.2,137066.13,Y,2018-2019,Cesar Chavez PCS for Public Policy - Parkside Middle School,109,Cesar Chavez PCS for Public Policy - Parkside Middle School,102,102,7th-8th,38.90143803,-76.94906511,PCSB_23BLD,Cluster 30,Ward 7,20019
24,City Arts and Prep PCS,705 EDGEWOOD STREET NE,PK3-8th,,202-269-4646,,0,0,chrt_85,https://cityartspcs.org/,289576,400359.57,139530.04,Y,2018-2019,City Arts & Prep PCS,153,City Arts & Prep PCS,210,210,PK3-8th,38.9236448,-76.99585343,PCSB_96BLD,Cluster 21,Ward 5,20017
25,Community College Preparatory Academy PCS [DCIA],2330 POMEROY ROAD SE,Adult,C. Vanessa Spinner,202-610-5780,,0,0,chrt_144,https://www.ccprep-academy.org/,294542,401254.17,132114.8,N,2018-2019,Community College Preparatory Academy PCS [DCIA],176,Community College Preparatory Academy PCS [DCIA],216,216,Adult,38.85684472,-76.98555043,PCSB_140BLD,Cluster 37,Ward 8,20020
26,Community College Preparatory Academy PCS [Main],2405 MARTIN LUTHER KING JR AVENUE SE,Adult,C. Vanessa Spinner,202-610-5780,,0,0,chrt_7,https://www.ccprep-academy.org/,147816,400639.64,132770.45,N,2018-2019,Community College Preparatory Academy PCS [Main],176,Community College Preparatory Academy PCS [Main],216,216,Adult,38.86275176,-76.99262996,PCSB_28BLD,Cluster 37,Ward 8,20020
27,Community College Preparatory Academy PCS [MC Terrell],3301 WHEELER ROAD SE,Adult,C. Vanessa Spinner,202-770-3252,,0,0,chrt_145,https://www.ccprep-academy.org/,294563,400512.16,130413.48,N,2018-2019,Community College Preparatory Academy PCS [MC Terrell],176,Community College Preparatory Academy PCS [MC Terrell],216,216,Adult,38.84151923,-76.99410056,DGS_0508.0,Cluster 39,Ward 8,20032
28,Creative Minds International PCS,3700 NORTH CAPITOL STREET NW,PK3-8th,"Golnar Abedin, Ph.D.",202-588-0370,,0,0,chrt_8,https://www.creativemindspcs.org/,291848,399397.09,140962.44,Y,2018-2019,Creative Minds International PCS,169,Creative Minds International PCS,3069,3069,PK3-8th,38.93654816,-77.00695403,PCSB_114BLD,Cluster 21,Ward 5,20011
29,DC Bilingual PCS,33 RIGGS ROAD NE,PK3-5th,Tehani Collazo,202-750-6674,,0,0,chrt_9,http://dcbilingual.org/,155991,399424.65,143002.17,Y,2018-2019,DC Bilingual PCS,114,DC Bilingual PCS,199,199,PK3-5th,38.95492264,-77.00663786,DGS_0776.0,Cluster 19,Ward 5,20011
30,DC Prep PCS - Anacostia Elementary,1409 V STREET SE,PK3-2nd,Rick Cruz,202-729-3500,,0,0,chrt_125,http://www.dcprep.org/Anacostia_Elementary_Campus,301493,401325.02,132980.84,Y,2018-2019,DC Prep PCS - Anacostia Elementary School,115,DC Prep PCS - Anacostia Elementary School,276,276,PK3-2nd,38.86464627,-76.98473248,PCSB_131BLD,Cluster 28,Ward 8,20020
31,DC Prep PCS - Benning Elementary,100 41ST STREET NE,PK3-3rd,Rick Cruz,202-398-2838,,0,0,chrt_11,http://www.dcprep.org/Benning_Elementary_Campus,294468,404787,135910.06,Y,2018-2019,DC Prep PCS - Benning Elementary School ,115,DC Prep PCS - Benning Elementary School ,1110,1110,PK3-3rd,38.8910218,-76.94482148,DGS_0185.0,Cluster 32,Ward 7,20019
32,DC Prep PCS - Benning Middle,100 41ST STREET NE,4th-8th,Rick Cruz,202-396-3780,,0,0,chrt_12,http://www.dcprep.org/Benning_Middle_Campus,294468,404787,135910.06,Y,2018-2019,DC Prep PCS - Benning Middle School,115,DC Prep PCS - Benning Middle School,218,218,4th-8th,38.8910218,-76.94482148,DGS_0185.0,Cluster 32,Ward 7,20019
33,DC Prep PCS - Edgewood Elementary,707 EDGEWOOD STREET NE,PK3-3rd,Rick Cruz,202-635-4411,,0,0,chrt_13,http://www.dcprep.org/Edgewood_Elementary_Campus,289577,400369.83,139600.22,Y,2018-2019,DC Prep PCS - Edgewood Elementary School,115,DC Prep PCS - Edgewood Elementary School,130,130,PK3-3rd,38.92427699,-76.99573508,PCSB_31BLD,Cluster 21,Ward 5,20017
34,DC Prep PCS - Edgewood Middle,701 EDGEWOOD STREET NE,4th-8th,Rick Cruz,202-832-5700,,0,0,chrt_14,http://www.dcprep.org/Edgewood_Middle_Campus,289579,400346.07,139651.51,Y,2018-2019,DC Prep PCS - Edgewood Middle School,115,DC Prep PCS - Edgewood Middle School,196,196,4th-8th,38.92473904,-76.99600905,PCSB_33BLD,Cluster 21,Ward 5,20017
35,DC Scholars PCS,5601 EAST CAPITOL STREET SE,PK3-8th,Lars Beck,202-559-6138,,0,0,chrt_15,https://dcscholars.org/dcspcs/,294610,406789.33,135740.32,Y,2018-2019,DC Scholars PCS,170,DC Scholars PCS,3070,3070,PK3-8th,38.88947954,-76.92174283,DGS_0187.0,Cluster 33,Ward 7,20019
36,Democracy Prep Congress Heights PCS,3100 MARTIN LUTHER KING JR AVENUE SE,PK3-8th,Sean Reidy,202-561-0860,,0,0,chrt_95,http://dpch.democracyprep.org/,301280,400161.23,130633.04,Y,2018-2019,Democracy Prep Congress Heights PCS,179,Democracy Prep Congress Heights PCS,234,234,PK3-8th,38.84349726,-76.99814278,DGS_0796.0,Cluster 39,Ward 8,20032
37,Digital Pioneers Academy PCS,2220 BRANCH AVENUE SE,6th,,202-677-3522,,0,0,chrt_141,https://www.digitalpioneersacademy.org/,50755,403591.43,132754.35,Y,2018-2019,Digital Pioneers PCS,317,Digital Pioneers PCS,1038,1038,6th,38.86259962,-76.958619,PCSB_137BLD,Cluster 35,Ward 7,20020
38,District of Columbia International School,1400 MAIN DRIVE NW,6th-11th,Mary Shaffner,202-808-9033,,0,0,chrt_44,https://dcinternationalschool.org/,316323,397036.3,145001.68,Y,2018-2019,District of Columbia International School,181,District of Columbia International School,248,248,6th-11th,38.97292958,-77.03420107,PCSB_132BLD,Cluster 17,Ward 4,20012
39,E.L. Haynes PCS - Elementary School,4501 KANSAS AVENUE NW,PK3-4th,Jennie Niles,202-667-4446,,0,0,chrt_18,https://www.elhaynes.org/,284930,398056.76,141967.7,Y,2018-2019,E.L. Haynes PCS - Elementary School,116,E.L. Haynes PCS - Elementary School,1206,1206,PK3-4th,38.94560189,-77.02241638,DGS_0625.0,Cluster 18,Ward 4,20011
40,E.L. Haynes PCS - High School,4501 KANSAS AVENUE NW,9th-12th,Jennie Niles,202-667-4446,,0,0,chrt_17,https://www.elhaynes.org/,284930,398056.76,141967.7,Y,2018-2019,E.L. Haynes PCS - High School,116,E.L. Haynes PCS - High School,1138,1138,9th-12th,38.94560189,-77.02241638,DGS_0625.0,Cluster 18,Ward 4,20011
41,E.L. Haynes PCS - Middle School,3600 GEORGIA AVENUE NW,5th-8th,Jennie Niles,202-667-4446,,0,0,chrt_39,https://www.elhaynes.org/,306085,397898.05,140715.53,Y,2018-2019,E.L. Haynes PCS - Middle School,116,E.L. Haynes PCS - Middle School,146,146,5th-8th,38.93432162,-77.02424335,PCSB_35BLD,Cluster 2,Ward 1,20010
42,Eagle Academy PCS - Fairlawn,2345 R STREET SE,PK3-3rd,Cassandra S. Pinkney,202-459-6825,,0,0,chrt_19,https://www.eagleacademypcs.org/,286946,402384.05,133493.14,Y,2018-2019,Eagle Academy PCS - Fairlawn,117,Eagle Academy PCS - Fairlawn,1125,1125,PK3-3rd,38.869259,-76.972528,PCSB_37BLD,Cluster 27,Ward 8,20020
43,Eagle Academy PCS - Congress Heights,3400 WHEELER ROAD SE,PK3-3rd,Cassandra S. Pinkney,202-544-2646,,0,0,chrt_20,https://www.eagleacademypcs.org/,294566,400604.46,130274.71,Y,2018-2019,Eagle Academy PCS - Congress Heights,117,Eagle Academy PCS - Congress Heights,195,195,PK3-3rd,38.84026907,-76.9930375,DGS_0517.0,Cluster 39,Ward 8,20032
44,Early Childhood Academy PCS,885 BARNABY STREET SE,PK3-3rd,Wendy Edwards,202-373-0035,,0,0,chrt_21,https://www.ecapcs.org/,81585,400761.57,129311.4,Y,2018-2019,Early Childhood Academy PCS [Facility A],118,Early Childhood Academy PCS [Facility A],138,138,PK3-3rd,38.831591,-76.991229,PCSB_39BLD,Cluster 39,Ward 8,20032
45,Early Childhood Academy PCS [Facility B],4301 9TH STREET SE,PK3-3rd,Wendy Edwards,202-373-0035,,0,0,chrt_22,https://www.ecapcs.org/,298086,400902.69,129245.01,N,2018-2019,Early Childhood Academy PCS [Facility B],118,Early Childhood Academy PCS [Facility B],138,138,PK3-3rd,38.83099281,-76.98960367,PCSB_40BLD,Cluster 39,Ward 8,20032
46,Elsie Whitlow Stokes Community Freedom PCS - Brookland,3700 OAKVIEW TERRACE NE,PK3-5th,"Linda Moore, Ed.D.",202-265-7237,,0,0,chrt_23,https://www.ewstokes.org/brookland-campus,289754,400859.44,140789.48,Y,2018-2019,Elsie Whitlow Stokes Community Freedom PCS - Brookland,144,Elsie Whitlow Stokes Community Freedom PCS - Brookland,159,159,PK3-5th,38.93498987,-76.99008735,PCSB_44BLD,Cluster 20,Ward 5,20017
47,Elsie Whitlow Stokes Community Freedom PCS - East End,5600 EAST CAPITOL STREET NE,PK3-KG,"Linda Moore, Ed.D.",202-975-2100,,0,0,chrt_140,https://www.ewstokes.org/east-end-campus,289793,406885.34,135830.53,Y,2018-2019,Elsie Whitlow Stokes Community Freedom PCS - East End,144,Elsie Whitlow Stokes Community Freedom PCS - East End,1059,1059,PK3-KG,38.89029144,-76.92063526,DGS_0686.0,Cluster 33,Ward 7,20019
48,Friendship PCS - Armstrong Elementary,111 O STREET NW,PK3-5th,Brenda Bethea,202-518-3928,,0,0,chrt_6,https://www.friendshipschools.org/schools/armstrong/,316309,398856.81,137891.78,Y,2018-2019,Friendship PCS - Armstrong,120,Friendship PCS - Armstrong,269,269,PK3-5th,38.908886,-77.013181,DGS_0793.0,Cluster 21,Ward 5,20001
49,Friendship PCS - Blow-Pierce Elementary,725 19TH STREET NE,PK3-3rd,Kimberly Campbell,202-572-1070,,0,0,chrt_25,https://www.friendshipschools.org/schools/blow-pierce/,288919,402040.17,136663.58,Y,2018-2019,Friendship PCS - Blow Pierce Elementary,120,Friendship PCS - Blow Pierce Elementary,361,361,PK3-3rd,38.89782045,-76.97648125,DGS_0795.0,Cluster 25,Ward 7,20002
50,Friendship PCS - Blow-Pierce Middle,725 19TH STREET NE,4th-8th,Kimberly Campbell,202-572-1070,,0,0,chrt_132,https://www.friendshipschools.org/schools/blow-pierce/,288919,402040.17,136663.58,Y,2018-2019,Friendship PCS - Blow-Pierce Middle,120,Friendship PCS - Blow-Pierce Middle,362,362,4th-8th,38.89782045,-76.97648125,DGS_0795.0,Cluster 25,Ward 7,20002
51,Academy of Hope Adult PCS [18th Place],2315 18TH PLACE NE,Adult,Lecester Johnson,202-269-6623,,0,0,chrt_28,https://aohdc.org/,48796,401921.82,139212.16,N,2018-2019,Academy of Hope Adult PCS [18th Place],178,Academy of Hope Adult PCS [18th Place],233,233,Adult,38.9207792,-76.97783843,PCSB_90BLD,Cluster 22,Ward 5,20018
52,Academy of Hope Adult PCS [Southeast],421 ALABAMA AVENUE SE,Adult,Lecester Johnson,202-373-0246,,0,0,chrt_29,https://aohdc.org/,25545,400021.69,130560.28,N,2018-2019,Academy of Hope Adult PCS [Southeast],178,Academy of Hope Adult PCS [Southeast],233,233,Adult,38.84284182,-76.99975015,PCSB_102BLD,Cluster 39,Ward 8,20032
53,Achievement Prep PCS - Wahler Place Elementary,908 WAHLER PLACE SE,PK3-3rd,Shantelle Wright,202-562-1307,,0,0,chrt_98,http://achievementprep.org/our-schools/elementary-carousel-5/,294502,400671.25,129615.24,Y,2018-2019,Achievement Preparatory Academy PCS - Wahler Place Elementary School,155,Achievement Preparatory Academy PCS - Wahler Place Elementary School,217,217,PK3-3rd,38.83432822,-76.99226882,DGS_0761.0,Cluster 39,Ward 8,20032
54,Achievement Prep PCS - Wahler Place Middle,908 WAHLER PLACE SE,4th-8th,Susan Canon,202-562-1214,,0,0,chrt_33,http://achievementprep.org/our-schools/wahler-middle-campus/,294502,400671.25,129615.24,Y,2018-2019,Achievement Preparatory Academy PCS - Wahler Place Middle School,155,Achievement Preparatory Academy PCS - Wahler Place Middle School,1100,1100,4th-8th,38.83432822,-76.99226882,DGS_0761.0,Cluster 39,Ward 8,20032
55,AppleTree Early Learning PCS - Columbia Heights,2750 14TH STREET NW,PK3-PK4,Michaele Samuel,202-667-9490,,0,0,chrt_100,https://www.appletreeinstitute.org/schools/columbia-heights/,297626,397160.68,139708.07,Y,2018-2019,AppleTree Early Learning Center PCS - Columbia Heights,103,AppleTree Early Learning Center PCS - Columbia Heights,140,140,PK3-PK4,38.92524403,-77.03274382,PCSB_3BLD,Cluster 2,Ward 1,20009
56,AppleTree Early Learning PCS - Douglas Knoll,2017 SAVANNAH TERRACE SE,PK3-PK4,Michaele Samuel,202-629-2545,,0,0,chrt_104,https://www.appletreeinstitute.org/schools/douglas-knoll/,278045,402177.09,131217.9,Y,2018-2019,AppleTree Early Learning Center PCS - Douglas Knoll,103,AppleTree Early Learning Center PCS - Douglas Knoll,3072,3072,PK3-PK4,38.84876326,-76.9749201,PCSB_4BLD,Cluster 38,Ward 8,20020
57,AppleTree Early Learning PCS - Lincoln Park,138 12TH STREET NE,PK3-PK4,Michaele Samuel,202-621-6581,,0,0,chrt_102,https://www.appletreeinstitute.org/schools/lincoln-park/,65489,400821.07,135963.23,Y,2018-2019,AppleTree Early Learning Center PCS - Lincoln Park,103,AppleTree Early Learning Center PCS - Lincoln Park,3073,3073,PK3-PK4,38.89151343,-76.99053567,PCSB_5BLD,Cluster 26,Ward 6,20002
58,AppleTree Early Learning PCS - Oklahoma Ave,330 21ST STREET NE,PK3-PK4,Michaele Samuel,202-629-2179,,0,0,chrt_103,https://www.appletreeinstitute.org/schools/oklahoma-avenue/,307321,402118.19,136305.64,Y,2018-2019,AppleTree Early Learning Center PCS - Oklahoma Avenue,103,AppleTree Early Learning Center PCS - Oklahoma Avenue,1137,1137,PK3-PK4,38.89459581,-76.97558295,PCSB_6BLD,Cluster 25,Ward 7,20002
59,AppleTree Early Learning PCS - Parklands @ THEARC,1801 MISSISSIPPI AVENUE SE,PK3-PK4,Michaele Samuel,202-526-1503,,0,0,chrt_101,https://www.appletreeinstitute.org/schools/parklands/,313139,401989.27,130619.67,Y,2018-2019,AppleTree Early Learning Center PCS - Parklands at THEARC,103,AppleTree Early Learning Center PCS - Parklands at THEARC,1069,1069,PK3-PK4,38.84337425,-76.9770855,PCSB_141BLD,Cluster 38,Ward 8,20032
60,AppleTree Early Learning PCS - Southwest,801 7TH STREET SW,PK3-PK4,Michaele Samuel,202-646-0500,,0,0,chrt_99,https://www.appletreeinstitute.org/schools/southwest/,276812,398012.08,134671.03,Y,2018-2019,AppleTree Early Learning Center PCS - Southwest,103,AppleTree Early Learning Center PCS - Southwest,141,141,PK3-PK4,38.87987093,-77.02291066,DGS_0739.0,Cluster 9,Ward 6,20024
61,BASIS DC PCS,410 8TH STREET NW,5th-12th,Carolyn McGarvy,202-393-5437,,0,0,chrt_106,http://www.basised.com/washington-dc/,279758,397985.56,136374.28,Y,2018-2019,Basis DC PCS,168,Basis DC PCS,3068,3068,5th-12th,38.89521439,-77.0232213,PCSB_10BLD,Cluster 8,Ward 2,20004
62,Latin American Montessori Bilingual PCS [South Dakota Avenue],1800 PERRY STREET NE,PK3-5th,Diane  Cottman,202-525-5105,,0,0,chrt_149,https://www.lambpcs.org/,294529,401855.75,140990.2,N,2018-2019,Latin American Montessori Bilingual PCS [South Dakota Avenue],130,Latin American Montessori Bilingual PCS [South Dakota Avenue],193,193,PK3-5th,38.93679648,-76.97859551,DGS_0780.0,Cluster 22,Ward 5,20018
63,LAYC Career Academy PCS,3220 16TH STREET NW,Adult,Lori Kaplan,202-319-2228,,0,0,chrt_36,http://www.laycca.org/,301528,396808.36,140381.96,N,2018-2019,LAYC Career Academy PCS,172,LAYC Career Academy PCS,104,104,Adult,38.93131343,-77.03681,PCSB_124BLD,Cluster 2,Ward 1,20010
64,Lee Montessori PCS,3025 4TH STREET NE,PK3-5th,Chris Pencikowski,202-779-9740,,0,0,chrt_96,http://www.leemontessori.org/,302681,400098.47,140017.95,Y,2018-2019,Lee Montessori PCS,177,Lee Montessori PCS,228,228,PK3-5th,38.92804,-76.998864,PCSB_128BLD,Cluster 21,Ward 5,20017
65,Mary McLeod Bethune Day Academy PCS - 16th Street,5413 16TH STREET NW,PK3-2nd,Linda McKay,202-506-3620,,0,0,chrt_150,https://www.mmbethune.org/apps/pages/index.jsp?uREC_ID=412646&type=d&pREC_ID=900609,255870,396886.43,143113.08,Y,2018-2019,Mary McLeod Bethune PCS [16th Street],132,Mary McLeod Bethune Day Academy PCS - 16th Street,135,135,PK3-2nd,38.95591642,-77.03592199,PCSB_113BLD,Cluster 18,Ward 4,20011
66,Mary McLeod Bethune Day Academy PCS - Brookland,1404 JACKSON STREET NE,PK3-8th,Linda McKay,202-459-4710,,0,0,chrt_67,https://www.mmbethune.org/apps/pages/index.jsp?uREC_ID=412646&type=d&pREC_ID=904977,294522,401138.94,140191.85,Y,2018-2019,Mary McLeod Bethune PCS [Main],132,Mary McLeod Bethune Day Academy PCS - Brookland,135,135,PK3-8th,38.92960592,-76.98686463,DGS_0300.0,Cluster 22,Ward 5,20017
67,Maya Angelou PCS – High School,5600 EAST CAPITOL STREET NE,9th-12th,"Heather Wathington, Ph.D.",202-379-4335,,0,0,chrt_68,https://www.seeforever.org/,289793,406885.34,135830.53,N,2018-2019,Maya Angelou PCS - High School,133,Maya Angelou PCS - High School,101,101,9th-12th,38.89029144,-76.92063526,DGS_0686.0,Cluster 33,Ward 7,20019
68,Maya Angelou PCS - Young Adult Learning Center,5600 EAST CAPITOL STREET NE,Adult,Sarah Navarro,202-797-8250,,0,0,chrt_30,https://www.seeforever.org/,289793,406885.34,135830.53,N,2018-2019,Maya Angelou PCS - Young Adult Learning Center,133,Maya Angelou PCS - Young Adult Learning Center,137,137,Adult,38.89029144,-76.92063526,DGS_0686.0,Cluster 33,Ward 7,20019
69,Meridian Public Charter School - Elementary School,2120 13TH STREET NW,PK3-8th,Kimberly Moore,202-387-9830,,0,0,chrt_69,https://www.mpcs-dc.org/,310205,397402.4,138987.03,Y,2018-2019,Meridian Public Charter School - Elementary School,135,Meridian Public Charter School - Elementary School,165,165,PK3-8th,38.91874942,-77.02995351,DGS_0273.0,Cluster 3,Ward 1,20009
70,Meridian Public Charter School - Middle School,3029 14TH STREET NW,7th-8th,Kimberly Moore,202-793-2667,,0,0,chrt_69,https://www.mpcs-dc.org/,284557,397205.49,140057.46,Y,2018-2019,Meridian Public Charter School - Middle School,135,Meridian Public Charter School - Middle School,165,165,7th-8th,38.928392,-77.032228,PCSB_112BLD,Cluster 2,Ward 1,20009
71,Monument Academy PCS,500 19TH STREET NE,5th-8th,Denise Miles,202-545-3180,,0,0,chrt_151,http://monumentacademy.org/,290080,401946.87,136540.64,Y,2018-2019,Monument Academy PCS,184,Monument Academy PCS,260,260,5th-8th,38.89671318,-76.97755714,DGS_0648.0,Cluster 25,Ward 6,20002
72,Mundo Verde Bilingual PCS - P Street NW,30 P STREET NW,PK3-5th,Kristin Scotchmer,202-750-7060,,0,0,chrt_70,http://www.mundoverdepcs.org/,294465,399105.74,137949.35,Y,2018-2019,Mundo Verde Bilingual PCS,171,Mundo Verde Bilingual PCS - P Street NW,3065,3065,PK3-5th,38.90940503,-77.01031056,DGS_0454.0,Cluster 21,Ward 5,20001
73,National Collegiate Preparatory Public Charter High School,4600 LIVINGSTON ROAD SE,9th-12th,Jennifer L. Ross,202-832-7737,,0,0,chrt_71,http://www.nationalprepdc.org/,294600,399731.95,128458.05,Y,2018-2019,National Collegiate Preparatory PCHS,163,National Collegiate Preparatory PCHS,1120,1120,9th-12th,38.82390393,-77.00308684,DGS_0628.0,Cluster 39,Ward 8,20032
74,Paul PCS - International High School,5800 8TH STREET NW,9th-12th,Jami Dunham,202-291-7495,,0,0,chrt_38,https://www.paulcharter.org/,294613,397857.27,143717.65,Y,2018-2019,Paul PCS - International High School,138,Paul PCS - International High School,222,222,9th-12th,38.96136545,-77.02472307,DGS_0779.0,Cluster 17,Ward 4,20011
75,Paul PCS - Middle School,5800 8TH STREET NW,6th-8th,Jami Dunham,202-291-7495,,0,0,chrt_74,https://www.paulcharter.org/,294613,397857.27,143717.65,Y,2018-2019,Paul PCS - Middle School,138,Paul PCS - Middle School,170,170,6th-8th,38.96136545,-77.02472307,DGS_0779.0,Cluster 17,Ward 4,20011
76,Perry Street Preparatory PCS,1800 PERRY STREET NE,PK3-8th,Shadwick Jenkins,202-529-4400,,0,0,chrt_75,https://www.pspdc.org/,294529,401855.75,140990.2,Y,2018-2019,Perry Street Preparatory PCS,125,Perry Street Preparatory PCS,161,161,PK3-8th,38.93679648,-76.97859551,DGS_0780.0,Cluster 22,Ward 5,20018
77,Richard Wright PCS for Journalism and Media Arts,770 M STREET SE,8th-12th,"Marco Clark, Ph.D.",202-388-1011,,0,0,chrt_77,http://richardwrightpcs.org/ns2015/,288946,400383.82,134351.84,Y,2018-2019,Richard Wright PCS for Journalism and Media Arts,167,Richard Wright PCS for Journalism and Media Arts,3067,3067,8th-12th,38.87699771,-76.99557668,PCSB_82BLD,Cluster 27,Ward 6,20003
78,Rocketship Legacy Prep PCS,4250 MASSACHUSETTS AVENUE SE,PK3-3rd,Jacque Patterson,202-803-7004,,0,0,chrt_138,https://www.rocketshipschools.org/schools/legacy-prep/,278515,405186.36,133578.65,Y,2018-2019,Rocketship PCS - Legacy Prep,191,Rocketship PCS - Legacy Prep,1016,1016,PK3-3rd,38.87001696,-76.94023576,PCSB_135BLD,Cluster 32,Ward 7,20019
79,Rocketship Rise Academy PCS,2335 RAYNOLDS PLACE SE,PK3-4th,Jacque Patterson,202-750-7177,,0,0,chrt_133,https://www.rocketshipschools.org/schools/rise-academy/,48301,402207.48,131998.55,Y,2018-2019,Rocketship PCS - Rise Academy,191,Rocketship PCS - Rise Academy,286,286,PK3-4th,38.85579528,-76.9745675,PCSB_127BLD,Cluster 36,Ward 8,20020
80,Roots PCS,15 KENNEDY STREET NW,PK3-5th,"Bernida Thompson, Ed.D.",202-882-8073,,0,0,chrt_78,http://www.rootspcs.org/,259404,399106.42,143217.68,Y,2018-2019,Roots PCS [Kennedy Street],140,Roots PCS [Kennedy Street],173,173,PK3-5th,38.95686375,-77.01030958,PCSB_83BLD,Cluster 17,Ward 4,20011
81,Roots PCS,6222 NORTH CAPITOL STREET NW,PK3-5th,"Bernida Thompson, Ed.D.",202-882-8073,,0,0,chrt_86,http://www.rootspcs.org/,277484,399182.01,144257.74,N,2018-2019,Roots PCS [North Capitol Street],140,Roots PCS [North Capitol Street],173,173,PK3-5th,38.96623295,-77.00943871,PCSB_116BLD,Cluster 19,Ward 4,20011
82,SEED Public Charter School of Washington DC,4300 C STREET SE,7th-12th,Charles Adams,202-248-7773,,0,0,chrt_87,https://www.seedschooldc.org/,288154,404658.72,135477.99,Y,2018-2019,"SEED PCS of Washington, DC",142,"SEED PCS of Washington, DC",174,174,7th-12th,38.88713024,-76.94630306,DGS_0802.0,Cluster 32,Ward 7,20019
83,Sela PCS,6015 CHILLUM PLACE NE,PK3-5th,,202-905-3012,,0,0,chrt_88,https://www.selapcs.org/home,288763,399361.73,143995.95,Y,2018-2019,Sela PCS,174,Sela PCS,197,197,PK3-5th,38.96387483,-77.00736469,PCSB_85BLD,Cluster 19,Ward 4,20011
84,Shining Stars Montessori Academy PCS,1240 RANDOLPH STREET NE,PK3-6th,Ayize Sabater,202-319-2307,,0,0,chrt_89,http://www.shiningstarspcs.org/,69931,400961.05,141190.1,Y,2018-2019,Shining Stars Montessori Academy PCS,166,Shining Stars Montessori Academy PCS,3066,3066,PK3-6th,38.93859867,-76.98891483,PCSB_130BLD,Cluster 20,Ward 5,20017
85,KIPP DC - Somerset Academy PCS,3301 WHEELER ROAD SE,4th-12th,,301-775-0537,,0,0,chrt_90,https://www.somersetprepdc.org/,294563,400512.16,130413.48,Y,2018-2019,KIPP DC - Somerset Academy PCS,175,KIPP DC - Somerset Academy PCS,187,187,4th-12th,38.84151923,-76.99410056,DGS_0508.0,Cluster 39,Ward 8,20032
86,St. Coletta Special Education PCS,1901 INDEPENDENCE AVENUE SE,SPED,,202-350-8680,,0,0,chrt_93,https://www.stcoletta.org/,302511,402023.67,135486.49,N,2018-2019,St. Coletta Special Education PCS,143,St. Coletta Special Education PCS,1047,1047,SPED,38.88721683,-76.97667492,PCSB_88BLD,Cluster 26,Ward 7,20003
87,Statesmen College Preparatory Academy for Boys PCS,4250 MASSACHUSETTS AVENUE SE,4th,Shawn Hardnett,202-505-9072,,0,0,chrt_142,https://www.northstarboys.org/,278515,405186.36,133578.65,Y,2018-2019,Statesmen College Preparatory Academy for Boys PCS,314,Statesmen College Preparatory Academy for Boys PCS,1037,1037,4th,38.87001696,-76.94023576,PCSB_135BLD,Cluster 32,Ward 7,20019
88,The Children's Guild DC Public Charter School,2146 24TH PLACE NE,KG-8th,,202-774-5442,,0,0,chrt_126,https://www.childrensguild.org/childrens-guild-dc-public-charter-school/,51191,402412.62,139203.19,Y,2018-2019,The Children's Guild DC PCS,188,The Children's Guild DC PCS,255,255,KG-8th,38.92069719,-76.97217878,PCSB_108BLD,Cluster 22,Ward 5,20018
89,The Family Place PCS,3309 16TH STREET NW,Adult,,202-265-0149,,0,0,chrt_152,http://www.thefamilyplacedc.org/,234409,396874.14,140448.74,N,2018-2019,The Family Place PCS,303,The Family Place PCS,1036,1036,Adult,38.93191525,-77.03605165,PCSB_138BLD,Cluster 2,Ward 1,20010
90,The Next Step/ El Prόximo Paso PCS,3047 15TH STREET NW,Adult,Julie Meyer,202-319-2249,,0,0,chrt_97,https://www.nextsteppcs.org/,243343,396892.23,140071.02,N,2018-2019,The Next Step/El Proximo Paso PCS,145,The Next Step/El Proximo Paso PCS,168,168,Adult,38.92851269,-77.0358413,PCSB_72BLD,Cluster 2,Ward 1,20009
91,Thurgood Marshall Academy PCS,2427 MARTIN LUTHER KING JR AVENUE SE,9th-12th,Alexandra Pardo,202-563-6862,,0,0,chrt_91,https://thurgoodmarshallacademy.org/,278159,400548.01,132717.75,Y,2018-2019,Thurgood Marshall Academy PCS,146,Thurgood Marshall Academy PCS,191,191,9th-12th,38.86227707,-76.99368577,DGS_0805.0,Cluster 37,Ward 8,20020
92,Two Rivers PCS at 4th Street,1227 4TH STREET NE,PK3-5th,Jessica Wodatch,202-543-4477,,0,0,chrt_80,https://www.tworiverspcs.org/,306605,399974.01,137654.97,Y,2018-2019,Two Rivers PCS - 4th Street [Elementary],149,Two Rivers PCS - 4th Street [Elementary],198,198,PK3-5th,38.90675361,-77.00029965,PCSB_91BLD,Cluster 25,Ward 6,20002
93,Two Rivers PCS at 4th Street,1234 4TH STREET NE,6th-8th,Jessica Wodatch,202-543-8477,,0,0,chrt_153,https://www.tworiverspcs.org/,70272,399918.43,137618.01,Y,2018-2019,Two Rivers PCS - 4th Street [Middle],149,Two Rivers PCS - 4th Street [Middle],198,198,6th-8th,38.90642066,-77.00094044,PCSB_104BLD,Cluster 25,Ward 6,20002
94,Two Rivers PCS at Young,820 26TH STREET NE,PK3-4th,Jessica Wodatch,202-388-1360,,0,0,chrt_131,https://www.tworiverspcs.org/,294499,402496.78,137030.93,Y,2018-2019,Two Rivers PCS - Young,149,Two Rivers PCS - Young,270,270,PK3-4th,38.90112849,-76.97121618,DGS_0783.0,Cluster 23,Ward 5,20002
95,Washington Global Public Charter School,525 SCHOOL STREET SW,6th-8th,,202-796-2415,,0,0,chrt_127,http://washingtonglobal.org/,11149,398304.38,135142.48,Y,2018-2019,Washington Global PCS,185,Washington Global PCS,263,263,6th-8th,38.88411855,-77.01954308,PCSB_109BLD,Cluster 9,Ward 6,20024
96,Washington Latin PCS - Middle School,5200 2ND STREET NW,5th-8th,Martha Cutts,202-223-1111,,0,0,chrt_81,http://latinpcs.org/,294608,398802.19,142887.49,Y,2018-2019,Washington Latin PCS - Middle School,151,Washington Latin PCS - Middle School,125,125,5th-8th,38.95388895,-77.01381902,DGS_0143.1,Cluster 18,Ward 4,20011
97,Washington Latin PCS - Upper School,5200 2ND STREET NW,9th-12th,Martha Cutts,202-541-1591,,0,0,chrt_82,http://latinpcs.org/,294608,398802.19,142887.49,Y,2018-2019,Washington Latin PCS - Upper School,151,Washington Latin PCS - Upper School,1118,1118,9th-12th,38.95388895,-77.01381902,DGS_0143.1,Cluster 18,Ward 4,20011
98,Washington Leadership Academy PCS,3015 4TH STREET NE,9th-11th,,240-580-3371,,0,0,chrt_136,http://www.washingtonleadershipacademy.org/,289740,400115.34,139998.5,Y,2018-2019,Washington Leadership Academy PCS,192,Washington Leadership Academy PCS,283,283,9th-11th,38.9278649,-76.99866982,PCSB_128BLD,Cluster 21,Ward 5,20017
99,Washington Yu Ying PCS,220 TAYLOR STREET NE,PK3-5th,Maquita Alexander,202-635-1950,,0,0,chrt_84,https://www.washingtonyuying.org/,50738,399680.78,141482.69,Y,2018-2019,Washington Yu Ying PCS,160,Washington Yu Ying PCS,1117,1117,PK3-5th,38.94123488,-77.00368216,PCSB_95BLD,Cluster 19,Ward 5,20017
100,Youthbuild PCS,3220 16TH STREET NW,Adult,,202-319-0141,,0,0,chrt_139,https://www.youthbuildpcs.org/,301528,396808.36,140381.96,N,2018-2019,YouthBuild PCS [16th Street],131,YouthBuild PCS [16th Street],128,128,Adult,38.93131343,-77.03681,PCSB_124BLD,Cluster 2,Ward 1,20010
101,Friendship PCS - Chamberlain Elementary,1345 POTOMAC AVENUE SE,PK3-3rd,Kimberly Campbell,202-547-5800,,0,0,chrt_26,https://www.friendshipschools.org/schools/chamberlain/,66334,401145.15,134616.92,Y,2018-2019,Friendship PCS - Chamberlain Elementary,120,Friendship PCS - Chamberlain Elementary,363,363,PK3-3rd,38.87938499,-76.9868023,PCSB_48BLD,Cluster 26,Ward 6,20003
102,Friendship PCS - Chamberlain Middle,1345 POTOMAC AVENUE SE,4th-8th,Kimberly Campbell,202-547-5800,,0,0,chrt_128,https://www.friendshipschools.org/schools/chamberlain/,66334,401145.15,134616.92,Y,2018-2019,Friendship PCS - Chamberlain Middle,120,Friendship PCS - Chamberlain Middle,364,364,4th-8th,38.87938499,-76.9868023,PCSB_48BLD,Cluster 26,Ward 6,20003
103,Friendship PCS - Collegiate Academy,4095 MINNESOTA AVENUE NE,9th-12th,Kimberly Campbell,202-396-5500,,0,0,chrt_27,https://www.friendshipschools.org/schools/collegiate/,288100,404654.26,136634.64,Y,2018-2019,Friendship PCS - Collegiate Academy,120,Friendship PCS - Collegiate Academy,186,186,9th-12th,38.8975498,-76.94634663,DGS_0781.0,Cluster 30,Ward 7,20019
104,Friendship PCS - Online,1351 NICHOLSON STREET NW,KG-8th,Tracy Slone,202-729-8287,,0,0,chrt_32,https://www.friendshipschools.org/schools/online/,257768,397261.57,143623.99,Y,2018-2019,Friendship PCS - Online Academy,120,Friendship PCS - Online Academy,268,268,KG-8th,38.96052008,-77.03159596,DGS_0804.0,Cluster 18,Ward 4,20011
105,Friendship PCS - Southeast Elementary Academy,645 MILWAUKEE PLACE SE,PK3-3rd,Kimberly Campbell,202-562-1980,,0,0,chrt_46,https://www.friendshipschools.org/schools/southeast/,1655,400259.75,131109.73,Y,2018-2019,Friendship PCS - Southeast Elementary,120,Friendship PCS - Southeast Elementary,113,113,PK3-3rd,38.84779147,-76.99700774,PCSB_50BLD,Cluster 39,Ward 8,20032
106,Friendship PCS - Southeast Middle Academy,645 MILWAUKEE PLACE SE,4th-6th,Kimberly Campbell,202-562-1980,,0,0,chrt_45,https://www.friendshipschools.org/schools/southeast-middle/,1655,400259.75,131109.73,Y,2018-2019,Friendship PCS - Southeast Middle,120,Friendship PCS - Southeast Middle,1057,1057,4th-6th,38.84779147,-76.99700774,PCSB_50BLD,Cluster 39,Ward 8,20032
107,Friendship PCS - Technology Preparatory High School Academy,2705 MARTIN LUTHER KING JR AVENUE SE,9th-12th,Kimberly Campbell,202-562-1681,,0,0,chrt_134,https://www.friendshipschools.org/schools/tech-prep-high/,289904,400331.09,131166.09,Y,2018-2019,Friendship PCS - Technology Preparatory High ,120,Friendship PCS - Technology Preparatory High ,1164,1164,9th-12th,38.84829917,-76.99618589,PCSB_51BLD,Cluster 39,Ward 8,20032
108,Friendship PCS - Technology Preparatory Middle Academy,2705 MARTIN LUTHER KING JR AVENUE SE,7th-8th,Kimberly Campbell,202-562-1681,,0,0,chrt_47,https://www.friendshipschools.org/schools/#middle,289904,400331.09,131166.09,Y,2018-2019,Friendship PCS - Technology Preparatory Middle,120,Friendship PCS - Technology Preparatory Middle,1124,1124,7th-8th,38.84829917,-76.99618589,PCSB_51BLD,Cluster 39,Ward 8,20032
109,Friendship PCS - Woodridge Elementary,2959 CARLTON AVENUE NE,PK3-3rd,Kimberly Campbell,202-635-6500,,0,0,chrt_48,https://www.friendshipschools.org/schools/woodridge/,42808,402898.67,140190.45,Y,2018-2019,Friendship PCS - Woodridge International Elementary,120,Friendship PCS - Woodridge International Elementary,365,365,PK3-3rd,38.92958893,-76.96656971,DGS_0900.0,Cluster 24,Ward 5,20018
110,Friendship PCS - Woodridge Middle,2959 CARLTON AVENUE NE,4th-8th,Kimberly Campbell,202-635-6500,,0,0,chrt_129,https://www.friendshipschools.org/schools/woodridge/,42808,402898.67,140190.45,Y,2018-2019,Friendship PCS - Woodridge International Middle,120,Friendship PCS - Woodridge International Middle,366,366,4th-8th,38.92958893,-76.96656971,DGS_0900.0,Cluster 24,Ward 5,20018
111,Goodwill Excel Center PCS,1776 G STREET NW,9th-12th,,202-839-3650,,0,0,chrt_147,http://www.dcgoodwill.org/excel-center/,218480,396428.16,136695.02,N,2018-2019,Goodwill Excel Center PCS,190,Goodwill Excel Center PCS,297,297,9th-12th,38.89809879,-77.04117576,PCSB_126BLD,Cluster 5,Ward 2,20006
112,Harmony DC PCS - School of Excellence,62 T STREET NE,KG-5th,,202-529-7500,,0,0,chrt_43,https://harmonydc.org/,299982,399421.3,138682.56,Y,2018-2019,Harmony DC PCS - School of Excellence,180,Harmony DC PCS - School of Excellence,245,245,KG-5th,38.9160103,-77.00667286,PCSB_107BLD,Cluster 21,Ward 5,20002
113,Hope Community PCS - Lamond,6200 KANSAS AVENUE NE,PK3-5th,Michael DePass,202-722-4421,,0,0,chrt_49,https://imaginehopelamond.org/,304055,399254.07,144200.69,Y,2018-2019,Hope Community PCS - Lamond,121,Hope Community PCS - Lamond,131,131,PK3-5th,38.96571909,-77.00860715,PCSB_53BLD,Cluster 19,Ward 4,20011
114,Hope Community PCS - Tolson,2917 8TH STREET NE,PK3-8th,Michael DePass,202-832-7370,,0,0,chrt_50,https://imaginehopetolson.org/,43392,400466.83,139897.04,Y,2018-2019,Hope Community PCS - Tolson,121,Hope Community PCS - Tolson,114,114,PK3-8th,38.9269508,-76.99461626,PCSB_54BLD,Cluster 21,Ward 5,20017
115,Howard University Middle School of Mathematics and Science PCS,405 HOWARD PLACE NW,6th-8th,Yohance C. Maqubela,202-806-7725,,0,0,chrt_51,https://hu-ms2.org/,291490,398341.18,139441.04,Y,2018-2019,Howard University Middle School of Mathematics and Science PCS,124,Howard University Middle School of Mathematics and Science PCS,115,115,6th-8th,38.92284156,-77.01912932,PCSB_59BLD,Cluster 3,Ward 1,20059
116,IDEA PCS,1027 45TH STREET NE,9th-12th,John Goldman,202-399-4750,,0,0,chrt_52,https://www.ideapcs.org/,75296,405455.53,137412.11,Y,2018-2019,IDEA PCS,126,IDEA PCS,163,163,9th-12th,38.90454891,-76.93710358,DGS_0799.0,Cluster 31,Ward 7,20019
117,Friendship PCS - Ideal Middle,6130 NORTH CAPITOL STREET NW,4th-8th,"George H. Rutherford II, Ph.D.",202- 729-6660,,0,0,chrt_121,http://www.iapcs.com/,285311,399139.13,144111.98,Y,2018-2019,Friendship PCS - Ideal Middle,127,Friendship PCS - Ideal Middle,134,134,4th-8th,38.96491986,-77.00993332,PCSB_60BLD,Cluster 19,Ward 4,20011
118,Ingenuity Prep PCS,4600 LIVINGSTON ROAD SE,PK3-5th,,202-562-0391,,0,0,chrt_1,http://www.ingenuityprep.org/,294600,399731.95,128458.05,Y,2018-2019,Ingenuity Prep PCS,173,Ingenuity Prep PCS,200,200,PK3-5th,38.82390393,-77.00308684,DGS_0628.0,Cluster 39,Ward 8,20032
119,Inspired Teaching Demonstration PCS,200 DOUGLAS STREET NE,PK3-8th,Deborah Dantzler Williams,202-248-6825,,0,0,chrt_2,https://www.inspiredteachingschool.org/,53086,399760.28,139534.59,Y,2018-2019,Inspired Teaching Demonstration PCS,165,Inspired Teaching Demonstration PCS,3064,3064,PK3-8th,38.92368582,-77.00276446,DGS_0768.0,Cluster 21,Ward 5,20002
120,Kingsman Academy PCS,1375 E STREET NE,6th-12th,Shannon Hodge,202-547-1028,,0,0,chrt_137,https://www.kingsmanacademy.org/,286107,401195.97,136444.7,Y,2018-2019,Kingsman Academy PCS,186,Kingsman Academy PCS,267,267,6th-12th,38.89585026,-76.98621343,DGS_0801.0,Cluster 25,Ward 6,20002
121,KIPP DC - AIM Academy PCS,2600 DOUGLASS ROAD SE,5th-8th,Susan Schaeffler,202-678-5477,,0,0,chrt_53,https://www.kippdc.org/schools/middle-schools/kipp-dc-aim-academy/,311456,401037.32,132090.08,Y,2018-2019,KIPP DC - AIM Academy PCS,129,KIPP DC - AIM Academy PCS,116,116,5th-8th,38.85662232,-76.98804884,DGS_0431.0,Cluster 37,Ward 8,20020
122,KIPP DC - Arts and Technology Academy PCS,5300 BLAINE STREET NE,PK3-KG,Allison Artis,202-395-6811,,0,0,chrt_105,https://www.kippdc.org/schools/early-childhood-schools/kipp-dc-arts-technology-academy/,304054,406537.33,136014.15,Y,2018-2019,KIPP DC - Arts and Technology Academy PCS,129,KIPP DC - Arts and Technology Academy PCS,236,236,PK3-KG,38.89194821,-76.9246449,DGS_0791.0,Cluster 31,Ward 7,20019
123,KIPP DC - College Preparatory PCS,1405 BRENTWOOD PARKWAY NE,9th-12th,Susan Schaeffler,202-678-2527,,0,0,chrt_54,https://www.kippdc.org/schools/high-school/kipp-dc-college-preparatory/,311606,400556.62,137970.76,Y,2018-2019,KIPP DC - College Preparatory Academy PCS,129,KIPP DC - College Preparatory Academy PCS,1123,1123,9th-12th,38.909598,-76.993582,DGS_0299.0,Cluster 23,Ward 5,20002
124,KIPP DC - Connect Academy PCS,1375 MOUNT OLIVET ROAD NE,PK3-KG,,202-396-5477,,0,0,chrt_63,https://www.kipp.org/school/kipp-dc-connect-academy/,286108,401636.15,137801.71,Y,2018-2019,KIPP DC - Connect Academy PCS,129,KIPP DC - Connect Academy PCS,209,209,PK3-KG,38.90807397,-76.98113601,DGS_0291.0,Cluster 23,Ward 5,20002
125,KIPP DC - Discover Academy PCS,2600 DOUGLASS ROAD SE,PK3-KG,Susan Schaeffler,202-678-7735,,0,0,chrt_55,https://www.kipp.org/school/kipp-dc-discover-academy/,311456,401037.32,132090.08,Y,2018-2019,KIPP DC - Discover Academy PCS,129,KIPP DC - Discover Academy PCS,1122,1122,PK3-KG,38.85662232,-76.98804884,DGS_0431.0,Cluster 37,Ward 8,20020
126,KIPP DC - Grow Academy PCS,421 P STREET NW,PK3-KG,Susan Schaeffler,202-986-4769,,0,0,chrt_56,https://www.kippdc.org/schools/early-childhood-schools/kipp-dc-grow-academy/,294487,398428.65,138002.89,Y,2018-2019,KIPP DC - Grow Academy PCS,129,KIPP DC - Grow Academy PCS,1129,1129,PK3-KG,38.90988639,-77.01811734,DGS_0778.0,Cluster 7,Ward 6,20001
127,Mundo Verde Bilingual PCS - 8th Street NE,4401 8TH STREET NE,PK3–1,,,,0,0,,,22543,400474.03,141675.39,Y,2019-2020,Mundo Verde Bilingual PCS - 8th Street NE,,Mundo Verde Bilingual PCS - 8th Street NE,0,,PK3–1,38.942971,-76.994532,,,Ward 5,20017
128,KIPP DC - Heights Academy PCS,2600 DOUGLASS ROAD SE,1st-4th,Susan Schaeffler,202-610-5323,,0,0,chrt_57,https://www.kippdc.org/schools/elementary-schools/kipp-dc-heights-academy/,311456,401037.32,132090.08,Y,2018-2019,KIPP DC - Heights Academy PCS,129,KIPP DC - Heights Academy PCS,3071,3071,1st-4th,38.85662232,-76.98804884,DGS_0431.0,Cluster 37,Ward 8,20020
129,KIPP DC - KEY Academy PCS,4801 BENNING ROAD SE,5th-8th,Susan Schaeffler,202-582-5477,,0,0,chrt_58,https://www.kipp.org/school/kipp-dc-key-academy/,17421,405692.28,134978.83,Y,2018-2019,KIPP DC - KEY Academy PCS,129,KIPP DC - KEY Academy PCS,189,189,5th-8th,38.88262754,-76.93439427,PCSB_68BLD,Cluster 33,Ward 7,20019
130,KIPP DC - Lead Academy PCS,421 P STREET NW,1st-4th,Susan Schaeffler,202-469-3300,,0,0,chrt_59,https://www.kipp.org/school/kipp-dc-lead-academy/,294487,398428.65,138002.89,Y,2018-2019,KIPP DC - Lead Academy PCS,129,KIPP DC - Lead Academy PCS,190,190,1st-4th,38.90988639,-77.01811734,DGS_0778.0,Cluster 7,Ward 6,20001
131,KIPP DC - LEAP Academy PCS,4801 BENNING ROAD SE,PK3-PK4,Susan Schaeffler,202-582-5327,,0,0,chrt_60,https://www.kipp.org/school/kipp-dc-leap-academy/,17421,405692.28,134978.83,Y,2018-2019,KIPP DC - LEAP Academy PCS,129,KIPP DC - LEAP Academy PCS,132,132,PK3-PK4,38.88262754,-76.93439427,PCSB_68BLD,Cluster 33,Ward 7,20019
132,KIPP DC - Northeast Academy PCS,1375 MOUNT OLIVET ROAD NE,5th-8th,John Barnhardt,202-398-5477,,0,0,chrt_122,https://www.kipp.org/school/kipp-dc-northeast-academy/,286108,401636.15,137801.71,Y,2018-2019,KIPP DC - Northeast Academy PCS,129,KIPP DC - Northeast Academy PCS,242,242,5th-8th,38.90807397,-76.98113601,DGS_0291.0,Cluster 23,Ward 5,20002
133,KIPP DC - Promise Academy PCS,4801 BENNING ROAD SE,KG-4th,Susan Schaeffler,202-582-1390,,0,0,chrt_61,https://www.kipp.org/school/kipp-dc-promise-academy/,17421,405692.28,134978.83,Y,2018-2019,KIPP DC - Promise Academy PCS,129,KIPP DC - Promise Academy PCS,1121,1121,KG-4th,38.88262754,-76.93439427,PCSB_68BLD,Cluster 33,Ward 7,20019
134,KIPP DC - Quest Academy PCS,5300 BLAINE STREET NE,1st-4th,Cherese Brauer,202-398-6811,,0,0,chrt_123,https://www.kipp.org/school/kipp-dc-quest-academy/,304054,406537.33,136014.15,Y,2018-2019,KIPP DC - Quest Academy PCS,129,KIPP DC - Quest Academy PCS,237,237,1st-4th,38.89194821,-76.9246449,DGS_0791.0,Cluster 31,Ward 7,20019
135,KIPP DC - Spring Academy PCS,1375 MOUNT OLIVET ROAD NE,1st-4th,,202-397-5477,,0,0,chrt_64,https://www.kipp.org/school/kipp-dc-spring-academy/,286108,401636.15,137801.71,Y,2018-2019,KIPP DC - Spring Academy PCS,129,KIPP DC - Spring Academy PCS,214,214,1st-4th,38.90807397,-76.98113601,DGS_0291.0,Cluster 23,Ward 5,20002
136,KIPP DC - Valor Academy PCS,5300 BLAINE STREET NE,5th-8th,Susan Schaeffler,202-398-6811,,0,0,chrt_130,https://www.kipp.org/school/kipp-dc-valor-academy/,304054,406537.33,136014.15,Y,2018-2019,KIPP DC - Valor Academy PCS,129,KIPP DC - Valor Academy PCS,243,243,5th-8th,38.89194821,-76.9246449,DGS_0791.0,Cluster 31,Ward 7,20019
137,KIPP DC - WILL Academy PCS,421 P STREET NW,5th-8th,Susan Schaeffler,202-328-9455,,0,0,chrt_62,https://www.kipp.org/school/kipp-dc-will-academy/,294487,398428.65,138002.89,Y,2018-2019,KIPP DC - WILL Academy PCS,129,KIPP DC - WILL Academy PCS,121,121,5th-8th,38.90988639,-77.01811734,DGS_0778.0,Cluster 7,Ward 6,20001
138,Latin American Montessori Bilingual PCS [Walter Reed],1400 MAIN DRIVE NW,PK3-5th,Diane  Cottman,202-829-2600,,0,0,chrt_148,https://www.lambpcs.org/,316323,397036.3,145001.68,N,2018-2019,Latin American Montessori Bilingual [Walter Reed],130,Latin American Montessori Bilingual [Walter Reed],193,193,PK3-5th,38.97292958,-77.03420107,PCSB_132BLD,Cluster 17,Ward 4,20012
139,Latin American Montessori Bilingual PCS [Missouri Avenue],1375 MISSOURI AVENUE NW,PK3-5th,Diane  Cottman,202-726-6200,,0,0,chrt_66,https://www.lambpcs.org/,284010,397192.03,143806.16,N,2018-2019,Latin American Montessori Bilingual PCS [Missouri Avenue],130,Latin American Montessori Bilingual PCS [Missouri Avenue],193,193,PK3-5th,38.96216089,-77.03239905,DGS_0800.0,Cluster 17,Ward 4,20011
140,Friendship PCS - Ideal Elementary,6130 NORTH CAPITOL STREET NW,PK3-3rd,"George H. Rutherford II, Ph.D.",202- 729-6660,,0,0,chrt_121,http://www.iapcs.com/,285311,399139.13,144111.98,Y,2018-2019,Friendship PCS - Ideal Elementary,127,Friendship PCS - Ideal Elementary,134,134,PK3-3rd,38.96491986,-77.00993332,PCSB_60BLD,Cluster 19,Ward 4,20011
